NORAD_CAT_ID,OBJECT_NAME,OBJECT_TYPE,EPOCH,MEAN_MOTION,ECCENTRICITY,INCLINATION,RA_OF_ASC_NODE,ARG_OF_PERICENTER,MEAN_ANOMALY,BSTAR,MEAN_MOTION_DOT,MEAN_MOTION_DDOT,TLE_LINE0,TLE_LINE1,TLE_LINE2,SEMIMAJOR_AXIS,PERIOD,APOGEE,PERIGEE,DECAYED
52855.0,STARLINK-4209,PAYLOAD,2023-05-17 23:12:59,15.08847413,0.0001014,53.2158,313.2583,88.6834,271.4274,0.00017253,2.46e-05,0.0,0 STARLINK-4209,1 52855U 22062AB  23137.96735394  .00002460  00000-0  17253-3 0  9992,2 52855  53.2158 313.2583 0001014  88.6834 271.4274 15.08847413 51418,6917.858,95.437,540.424,539.021,0.0
52855.0,STARLINK-4209,PAYLOAD,2023-05-18 18:17:37,15.08836147,0.0001072,53.2163,309.6901,89.8623,270.2492,1.8096e-05,0.0,0.0,0 STARLINK-4209,1 52855U 22062AB  23138.76224053  .00000000  00000-0  18096-4 0  9991,2 52855  53.2163 309.6901 0001072  89.8623 270.2492 15.08836147 51534,6917.892,95.438,540.499,539.016,0.0
52855.0,STARLINK-4209,PAYLOAD,2023-05-18 19:53:00,15.08839325,0.0001041,53.2162,309.3925,93.4584,266.6527,-1.7139e-05,-5.61e-06,0.0,0 STARLINK-4209,1 52855U 22062AB  23138.82847902 -.00000561  00000-0 -17139-4 0  9993,2 52855  53.2162 309.3925 0001041  93.4584 266.6527 15.08839325 51055,6917.882,95.438,540.468,539.027,0.0
52855.0,STARLINK-4209,PAYLOAD,2023-05-19 03:49:56,15.08843235,0.0001036,53.216,307.9053,89.6364,270.4747,9.6105e-05,1.242e-05,0.0,0 STARLINK-4209,1 52855U 22062AB  23139.15967719  .00001242  00000-0  96105-4 0  9994,2 52855  53.2160 307.9053 0001036  89.6364 270.4747 15.08843235 51597,6917.871,95.437,540.452,539.019,0.0
52855.0,STARLINK-4209,PAYLOAD,2023-05-19 18:08:24,15.08845833,0.0001163,53.2168,305.2298,97.0373,263.0752,0.00016742,2.378e-05,0.0,0 STARLINK-4209,1 52855U 22062AB  23139.75583620  .00002378  00000-0  16742-3 0  9994,2 52855  53.2168 305.2298 0001163  97.0373 263.0752 15.08845833 51197,6917.863,95.437,540.532,538.923,0.0
52855.0,STARLINK-4209,PAYLOAD,2023-05-20 17:59:10,15.08862885,6.96e-05,53.214,300.773,127.782,232.3236,-0.00024281,-4.152e-05,0.0,0 STARLINK-4209,1 52855U 22062AB  23140.74942645 -.00004152  00000-0 -24281-3 0  9992,2 52855  53.2140 300.7730 0000696 127.7820 232.3236 15.08862885 51839,6917.81,95.436,540.157,539.194,0.0
52855.0,STARLINK-4209,PAYLOAD,2023-05-21 03:31:29,15.08846351,9.58e-05,53.2151,298.9875,83.7788,276.3313,0.000132,1.814e-05,0.0,0 STARLINK-4209,1 52855U 22062AB  23141.14687432  .00001814  00000-0  13200-3 0  9996,2 52855  53.2151 298.9875 0000958  83.7788 276.3313 15.08846351 51894,6917.861,95.437,540.389,539.063,0.0
52855.0,STARLINK-4209,PAYLOAD,2023-05-21 13:03:49,15.08823661,6.41e-05,53.2149,297.2036,93.443,266.6635,-0.00017919,-3.137e-05,0.0,0 STARLINK-4209,1 52855U 22062AB  23141.54432613 -.00003137  00000-0 -17919-3 0  9992,2 52855  53.2149 297.2036 0000641  93.4430 266.6635 15.08823661 51464,6917.93,95.439,540.239,539.352,0.0
52855.0,STARLINK-4209,PAYLOAD,2023-05-21 16:14:36,15.08826564,8.51e-05,53.2151,296.6074,82.0013,278.1076,-0.00015717,-2.787e-05,0.0,0 STARLINK-4209,1 52855U 22062AB  23141.67680676 -.00002787  00000-0 -15717-3 0  9994,2 52855  53.2151 296.6074 0000851  82.0013 278.1076 15.08826564 51974,6917.921,95.438,540.375,539.198,0.0
52855.0,STARLINK-4209,PAYLOAD,2023-05-21 19:25:22,15.0883078,9.44e-05,53.2151,296.0117,77.0935,283.0163,-8.7614e-05,-1.681e-05,0.0,0 STARLINK-4209,1 52855U 22062AB  23141.80928374 -.00001681  00000-0 -87614-4 0  9997,2 52855  53.2151 296.0117 0000944  77.0935 283.0163 15.08830780 51502,6917.909,95.438,540.427,539.121,0.0
52855.0,STARLINK-4209,PAYLOAD,2023-05-22 03:22:17,15.08836887,9.7e-05,53.2152,294.5243,77.5713,282.5388,0.00013387,1.843e-05,0.0,0 STARLINK-4209,1 52855U 22062AB  23142.14048462  .00001843  00000-0  13387-3 0  9999,2 52855  53.2152 294.5243 0000970  77.5713 282.5388 15.08836887 52041,6917.89,95.438,540.426,539.084,0.0
52855.0,STARLINK-4209,PAYLOAD,2023-05-22 09:43:50,15.08842848,8.8e-05,53.2153,293.3348,77.6899,282.4191,0.00040957,6.237e-05,0.0,0 STARLINK-4209,1 52855U 22062AB  23142.40544439  .00006237  00000-0  40957-3 0  9998,2 52855  53.2153 293.3348 0000880  77.6899 282.4191 15.08842848 51595,6917.872,95.437,540.345,539.128,0.0
52855.0,STARLINK-4209,PAYLOAD,2023-05-22 16:05:23,15.08848596,8.92e-05,53.215,292.1455,71.9737,288.1352,0.00087989,0.00013747,0.0,0 STARLINK-4209,1 52855U 22062AB  23142.67040552  .00013747  00000-0  87989-3 0  9994,2 52855  53.2150 292.1455 0000892  71.9737 288.1352 15.08848596 51632,6917.854,95.437,540.336,539.102,0.0
52855.0,STARLINK-4209,PAYLOAD,2023-05-23 09:34:37,15.08845398,8.81e-05,53.2146,288.875,65.6892,294.4192,0.00038942,5.916e-05,0.0,0 STARLINK-4209,1 52855U 22062AB  23143.39904635  .00005916  00000-0  38942-3 0  9999,2 52855  53.2146 288.8750 0000881  65.6892 294.4192 15.08845398 52233,6917.864,95.437,540.338,539.119,0.0
52855.0,STARLINK-4209,PAYLOAD,2023-05-23 15:56:10,15.08844269,8.72e-05,53.2147,287.6858,64.9992,295.109,0.00031459,4.723e-05,0.0,0 STARLINK-4209,1 52855U 22062AB  23143.66400630  .00004723  00000-0  31459-3 0  9996,2 52855  53.2147 287.6858 0000872  64.9992 295.1090 15.08844269 51783,6917.867,95.437,540.336,539.129,0.0
52855.0,STARLINK-4209,PAYLOAD,2023-05-24 03:03:52,15.08844304,8.55e-05,53.2149,285.6047,59.9295,300.1782,0.00023794,3.502e-05,0.0,0 STARLINK-4209,1 52855U 22062AB  23144.12768617  .00003502  00000-0  23794-3 0  9997,2 52855  53.2149 285.6047 0000855  59.9295 300.1782 15.08844304 52342,6917.867,95.437,540.324,539.141,0.0
52855.0,STARLINK-4209,PAYLOAD,2023-05-24 15:46:57,15.08842817,9.53e-05,53.2163,283.2255,79.1159,280.9941,0.00010399,1.368e-05,0.0,0 STARLINK-4209,1 52855U 22062AB  23144.65760731  .00001368  00000-0  10399-3 0  9999,2 52855  53.2163 283.2255 0000953  79.1159 280.9941 15.08842817 51938,6917.872,95.437,540.396,539.078,0.0
52855.0,STARLINK-4209,PAYLOAD,2023-05-25 14:02:20,15.08845646,9.22e-05,53.2163,279.0618,81.7705,278.3392,0.00016005,2.261e-05,0.0,0 STARLINK-4209,1 52855U 22062AB  23145.58496467  .00002261  00000-0  16005-3 0  9997,2 52855  53.2163 279.0618 0000922  81.7705 278.3392 15.08845646 52076,6917.863,95.437,540.366,539.09,0.0
52855.0,STARLINK-4209,PAYLOAD,2023-05-26 09:06:58,15.08841955,8.71e-05,53.2163,275.4926,90.5518,269.5574,7.3564e-05,8.83e-06,0.0,0 STARLINK-4209,1 52855U 22062AB  23146.37984448  .00000883  00000-0  73564-4 0  9998,2 52855  53.2163 275.4926 0000871  90.5518 269.5574 15.08841955 52681,6917.874,95.437,540.342,539.137,0.0
52855.0,STARLINK-4209,PAYLOAD,2023-05-26 13:53:08,15.08840662,8.08e-05,53.2166,274.6008,88.8858,271.2226,7.8761e-05,9.66e-06,0.0,0 STARLINK-4209,1 52855U 22062AB  23146.57856551  .00000966  00000-0  78761-4 0  9999,2 52855  53.2166 274.6008 0000808  88.8858 271.2226 15.08840662 52221,6917.878,95.438,540.302,539.184,0.0
52855.0,STARLINK-4209,PAYLOAD,2023-05-26 15:28:31,15.0884293,8.23e-05,53.2165,274.3034,93.7223,266.3863,8.6822e-05,1.094e-05,0.0,0 STARLINK-4209,1 52855U 22062AB  23146.64480353  .00001094  00000-0  86822-4 0  9990,2 52855  53.2165 274.3034 0000823  93.7223 266.3863 15.08842930 52237,6917.871,95.437,540.306,539.167,0.0
52855.0,STARLINK-4209,PAYLOAD,2023-05-27 16:54:41,15.08843146,8.37e-05,53.2162,269.546,93.8277,266.2811,-3.0089e-05,-7.67e-06,0.0,0 STARLINK-4209,1 52855U 22062AB  23147.70464741 -.00000767  00000-0 -30089-4 0  9993,2 52855  53.2162 269.5460 0000837  93.8277 266.2811 15.08843146 52881,6917.871,95.437,540.315,539.157,0.0
52855.0,STARLINK-4209,PAYLOAD,2023-05-28 00:51:37,15.08837636,8.12e-05,53.2161,268.0595,94.5846,265.5239,6.5828e-05,7.6e-06,0.0,0 STARLINK-4209,1 52855U 22062AB  23148.03584869  .00000760  00000-0  65828-4 0  9994,2 52855  53.2161 268.0595 0000812  94.5846 265.5239 15.08837636 52441,6917.888,95.438,540.314,539.191,0.0
52855.0,STARLINK-4209,PAYLOAD,2023-05-28 16:45:28,15.08847428,8.38e-05,53.2159,265.0858,94.6422,265.4666,0.00012005,1.624e-05,0.0,0 STARLINK-4209,1 52855U 22062AB  23148.69824195  .00001624  00000-0  12005-3 0  9993,2 52855  53.2159 265.0858 0000838  94.6422 265.4666 15.08847428 52540,6917.858,95.437,540.302,539.143,0.0
52855.0,STARLINK-4209,PAYLOAD,2023-05-29 00:42:24,15.08831067,8.78e-05,53.2156,263.5998,112.313,247.7955,0.00019584,2.83e-05,0.0,0 STARLINK-4209,1 52855U 22062AB  23149.02945107  .00002830  00000-0  19584-3 0  9997,2 52855  53.2156 263.5998 0000878 112.3130 247.7955 15.08831067 53089,6917.908,95.438,540.38,539.165,0.0
52855.0,STARLINK-4209,PAYLOAD,2023-05-29 13:25:29,15.088398,8.35e-05,53.2158,261.2202,104.0611,256.0474,7.221e-05,8.62e-06,0.0,0 STARLINK-4209,1 52855U 22062AB  23149.55936854  .00000862  00000-0  72210-4 0  9993,2 52855  53.2158 261.2202 0000835 104.0611 256.0474 15.08839800 52675,6917.881,95.438,540.324,539.168,0.0
52855.0,STARLINK-4209,PAYLOAD,2023-05-29 16:36:15,15.088425,8.28e-05,53.2158,260.6254,101.4917,258.6169,9.1005e-05,1.161e-05,0.0,0 STARLINK-4209,1 52855U 22062AB  23149.69184628  .00001161  00000-0  91005-4 0  9998,2 52855  53.2158 260.6254 0000828 101.4917 258.6169 15.08842500 53184,6917.873,95.437,540.311,539.165,0.0
52855.0,STARLINK-4209,PAYLOAD,2023-05-30 00:33:11,15.08837518,8.12e-05,53.2163,259.1364,84.8924,275.216,2.5156e-05,1.13e-06,0.0,0 STARLINK-4209,1 52855U 22062AB  23150.02305135  .00000113  00000-0  25156-4 0  9995,2 52855  53.2163 259.1364 0000812  84.8924 275.2160 15.08837518 53235,6917.888,95.438,540.315,539.191,0.0
52855.0,STARLINK-4209,PAYLOAD,2023-05-30 11:40:53,15.08834345,9.08e-05,53.218,257.0538,84.8877,275.2219,2.2007e-05,6.3e-07,0.0,0 STARLINK-4209,1 52855U 22062AB  23150.48673470  .00000063  00000-0  22007-4 0  9991,2 52855  53.2180 257.0538 0000908  84.8877 275.2219 15.08834345 52810,6917.898,95.438,540.391,539.135,0.0
52855.0,STARLINK-4209,PAYLOAD,2023-05-30 13:16:17,15.0883731,9.23e-05,53.2172,256.756,92.4311,267.6787,-5.0486e-05,-1.091e-05,0.0,0 STARLINK-4209,1 52855U 22062AB  23150.55297491 -.00001091  00000-0 -50486-4 0  9990,2 52855  53.2172 256.7560 0000923  92.4311 267.6787 15.08837310 52828,6917.889,95.438,540.392,539.115,0.0
